COMMENT,ORIGINATOR,NORAD_CAT_ID,OBJECT_NAME,OBJECT_TYPE,CLASSIFICATION_TYPE,INTLDES,EPOCH,EPOCH_MICROSECONDS,MEAN_MOTION,ECCENTRICITY,INCLINATION,RA_OF_ASC_NODE,ARG_OF_PERICENTER,MEAN_ANOMALY,EPHEMERIS_TYPE,ELEMENT_SET_NO,REV_AT_EPOCH,BSTAR,MEAN_MOTION_DOT,MEAN_MOTION_DDOT,FILE,TLE_LINE0,TLE_LINE1,TLE_LINE2,OBJECT_ID,OBJECT_NUMBER,SEMIMAJOR_AXIS,PERIOD,APOGEE,PERIGEE,DECAYED,date
GENERATED VIA SPACETRACK.ORG API,18 SPCS,46301,SPACEBEE-20,PAYLOAD,U,20061AF,2023/4/26 9:29,192768,15.57386342,0.0005305,97.4085,193.4296,230.4644,129.6143,0,999,14635,0.0024438,0.00182695,0,3894260,0 SPACEBEE-20,1 46301U 20061AF  23116.39514112  .00182695  00000-0  24438-2 0  9996,2 46301  97.4085 193.4296 0005305 230.4644 129.6143 15.57386342146358,2020-061AF,46301,6773.362,92.463,398.82,391.633,1,
GENERATED VIA SPACETRACK.ORG API,18 SPCS,46301,SPACEBEE-20,PAYLOAD,U,20061AF,2023/4/26 20:16,960320,15.57561576,0.0005466,97.408,193.8974,230.579,129.4982,0,999,14642,0.0026814,0.00202274,0,3894261,0 SPACEBEE-20,1 46301U 20061AF  23116.84488380  .00202274  00000-0  26814-2 0  9999,2 46301  97.4080 193.8974 0005466 230.5790 129.4982 15.57561576146422,2020-061AF,46301,6772.854,92.452,398.421,391.017,1,
GENERATED VIA SPACETRACK.ORG API,18 SPCS,46301,SPACEBEE-20,PAYLOAD,U,20061AF,2023/4/27 3:59,854240,15.57691113,0.0005452,97.4079,194.2313,230.0926,129.985,0,999,14647,0.0027556,0.00209054,0,3894410,0 SPACEBEE-20,1 46301U 20061AF  23117.16609785  .00209054  00000-0  27556-2 0  9996,2 46301  97.4079 194.2313 0005452 230.0926 129.9850 15.57691113146478,2020-061AF,46301,6772.478,92.445,398.036,390.651,1,
GENERATED VIA SPACETRACK.ORG API,18 SPCS,46301,SPACEBEE-20,PAYLOAD,U,20061AF,2023/4/27 3:59,854240,15.57691113,0.0005452,97.4079,194.2313,230.0926,129.985,0,999,14647,0.0027556,0.00209054,0,3894751,0 SPACEBEE-20,1 46301U 20061AF  23117.16609785  .00209054  00000-0  27556-2 0  9996,2 46301  97.4079 194.2313 0005452 230.0926 129.9850 15.57691113146478,2020-061AF,46301,6772.478,92.445,398.036,390.651,1,
GENERATED VIA SPACETRACK.ORG API,18 SPCS,46301,SPACEBEE-20,PAYLOAD,U,20061AF,2023/4/28 4:39,96576,15.58152987,0.0005486,97.408,195.3003,228.2733,131.8054,0,999,14663,0.0027954,0.00215944,0,3895249,0 SPACEBEE-20,1 46301U 20061AF  23118.19378584  .00215944  00000-0  27954-2 0  9997,2 46301  97.4080 195.3003 0005486 228.2733 131.8054 15.58152987146638,2020-061AF,46301,6771.14,92.417,396.719,389.29,1,
GENERATED VIA SPACETRACK.ORG API,18 SPCS,46301,SPACEBEE-20,PAYLOAD,U,20061AF,2023/4/28 10:48,84480,15.5825956,0.0005529,97.4078,195.5671,231.2791,128.7971,0,999,14667,0.0027914,0.00216512,0,3895770,0 SPACEBEE-20,1 46301U 20061AF  23118.45066070  .00216512  00000-0  27914-2 0  9998,2 46301  97.4078 195.5671 0005529 231.2791 128.7971 15.58259560146676,2020-061AF,46301,6770.831,92.411,396.44,388.952,1,
GENERATED VIA SPACETRACK.ORG API,18 SPCS,46301,SPACEBEE-20,PAYLOAD,U,20061AF,2023/4/29 3:46,23104,15.58585194,0.0005678,97.4079,196.3023,230.2458,129.8298,0,999,14678,0.0028378,0.00222998,0,3896205,0 SPACEBEE-20,1 46301U 20061AF  23119.15696786  .00222998  00000-0  28378-2 0  9999,2 46301  97.4079 196.3023 0005678 230.2458 129.8298 15.58585194146782,2020-061AF,46301,6769.888,92.391,395.597,387.909,1,
GENERATED VIA SPACETRACK.ORG API,18 SPCS,46301,SPACEBEE-20,PAYLOAD,U,20061AF,2023/4/29 3:46,23104,15.58585194,0.0005678,97.4079,196.3023,230.2458,129.8298,0,999,14678,0.0028378,0.00222998,0,3896517,0 SPACEBEE-20,1 46301U 20061AF  23119.15696786  .00222998  00000-0  28378-2 0  9999,2 46301  97.4079 196.3023 0005678 230.2458 129.8298 15.58585194146782,2020-061AF,46301,6769.888,92.391,395.597,387.909,1,
GENERATED VIA SPACETRACK.ORG API,18 SPCS,46301,SPACEBEE-20,PAYLOAD,U,20061AF,2023/4/29 17:38,373216,15.58851137,0.0005625,97.4072,196.9037,229.6427,130.4339,0,999,14687,0.0031796,0.00253319,0,3896656,0 SPACEBEE-20,1 46301U 20061AF  23119.73474969  .00253319  00000-0  31796-2 0  9999,2 46301  97.4072 196.9037 0005625 229.6427 130.4339 15.58851137146873,2020-061AF,46301,6769.118,92.376,394.791,387.175,1,
GENERATED VIA SPACETRACK.ORG API,18 SPCS,46301,SPACEBEE-20,PAYLOAD,U,20061AF,2023/4/30 2:52,752960,15.59027622,0.0005655,97.4071,197.3047,228.9561,131.1207,0,999,14693,0.0029413,0.00235364,0,3897307,0 SPACEBEE-20,1 46301U 20061AF  23120.11988140  .00235364  00000-0  29413-2 0  9997,2 46301  97.4071 197.3047 0005655 228.9561 131.1207 15.59027622146936,2020-061AF,46301,6768.607,92.365,394.3,386.644,1,
GENERATED VIA SPACETRACK.ORG API,18 SPCS,46301,SPACEBEE-20,PAYLOAD,U,20061AF,2023/4/30 2:52,752960,15.59027622,0.0005655,97.4071,197.3047,228.9561,131.1207,0,999,14693,0.0029413,0.00235364,0,3897442,0 SPACEBEE-20,1 46301U 20061AF  23120.11988140  .00235364  00000-0  29413-2 0  9997,2 46301  97.4071 197.3047 0005655 228.9561 131.1207 15.59027622146936,2020-061AF,46301,6768.607,92.365,394.3,386.644,1,
GENERATED VIA SPACETRACK.ORG API,18 SPCS,46301,SPACEBEE-20,PAYLOAD,U,20061AF,2023/4/30 18:16,634464,15.59302749,0.0005692,97.4072,197.9735,229.4457,130.6304,0,999,14703,0.0026577,0.00214319,0,3897618,0 SPACEBEE-20,1 46301U 20061AF  23120.76167401  .00214319  00000-0  26577-2 0  9992,2 46301  97.4072 197.9735 0005692 229.4457 130.6304 15.59302749147038,2020-061AF,46301,6767.811,92.349,393.528,385.824,1,
